{
  "type": "FeatureCollection",
  "features": [
    {
      "type": "Feature",
      "properties": {
        "norad_id": 40115,
        "name": "WORLDVIEW-3 (WV-3)",
        "group": "resource",
        "lat": 27.853318815179794,
        "lon": 50.881527783110634,
        "alt_km": 613.9220350364612,
        "timestamp": "2025-12-08T17:43:04.551110+00:00",
        "meta_object_name": "WORLDVIEW-3 (WV-3)",
        "meta_object_id": "2014-048A",
        "meta_epoch": "2025-12-08T06:16:30.893952",
        "meta_mean_motion": 14.85495213,
        "meta_eccentricity": 0.000442,
        "meta_inclination": 97.862,
        "meta_ra_of_asc_node": 54.5981,
        "meta_arg_of_pericenter": 200.3592,
        "meta_mean_anomaly": 159.7448,
        "meta_ephemeris_type": 0,
        "meta_classification_type": "U",
        "meta_norad_cat_id": 40115,
        "meta_element_set_no": 999,
        "meta_rev_at_epoch": 61357,
        "meta_bstar": 0.00026806638,
        "meta_mean_motion_dot": 2.26e-05,
        "meta_mean_motion_ddot": 0,
        "tle_line1": "1 40115U 14048A   25342.26146868  .00002260  00000+0  26807-3 0  9990",
        "tle_line2": "2 40115  97.8620  54.5981 0004420 200.3592 159.7448 14.85495213613570"
      },
      "geometry": {
        "type": "Point",
        "coordinates": [
          50.881527783110634,
          27.853318815179794
        ]
      }
    },
    {
      "type": "Feature",
      "properties": {
        "norad_id": 40118,
        "name": "GAOFEN-2",
        "group": "resource",
        "lat": -79.90461864247438,
        "lon": 94.4420853084377,
        "alt_km": 639.9805685223046,
        "timestamp": "2025-12-08T17:43:04.551121+00:00",
        "meta_object_name": "GAOFEN-2",
        "meta_object_id": "2014-049A",
        "meta_epoch": "2025-12-08T06:44:35.623968",
        "meta_mean_motion": 14.80597252,
        "meta_eccentricity": 0.00084278,
        "meta_inclination": 98.0391,
        "meta_ra_of_asc_node": 41.4416,
        "meta_arg_of_pericenter": 125.856,
        "meta_mean_anomaly": 234.3435,
        "meta_ephemeris_type": 0,
        "meta_classification_type": "U",
        "meta_norad_cat_id": 40118,
        "meta_element_set_no": 999,
        "meta_rev_at_epoch": 61098,
        "meta_bstar": 0.0002217257,
        "meta_mean_motion_dot": 1.648e-05,
        "meta_mean_motion_ddot": 0,
        "tle_line1": "1 40118U 14049A   25342.28096787  .00001648  00000+0  22173-3 0  9991",
        "tle_line2": "2 40118  98.0391  41.4416 0008427 125.8560 234.3435 14.80597252610985"
      },
      "geometry": {
        "type": "Point",
        "coordinates": [
          94.4420853084377,
          -79.90461864247438
        ]
      }
    },
    {
      "type": "Feature",
      "properties": {
        "norad_id": 40143,
        "name": "YAOGAN-21",
        "group": "resource",
        "lat": -19.304579184987393,
        "lon": 28.754196126467143,
        "alt_km": 498.2091259682775,
        "timestamp": "2025-12-08T17:43:04.551131+00:00",
        "meta_object_name": "YAOGAN-21",
        "meta_object_id": "2014-053A",
        "meta_epoch": "2025-12-08T06:46:10.089408",
        "meta_mean_motion": 15.23596222,
        "meta_eccentricity": 0.00099922,
        "meta_inclination": 97.1757,
        "meta_ra_of_asc_node": 25.7885,
        "meta_arg_of_pericenter": 55.4301,
        "meta_mean_anomaly": 304.7878,
        "meta_ephemeris_type": 0,
        "meta_classification_type": "U",
        "meta_norad_cat_id": 40143,
        "meta_element_set_no": 999,
        "meta_rev_at_epoch": 62586,
        "meta_bstar": 0.0003647566,
        "meta_mean_motion_dot": 8.677e-05,
        "meta_mean_motion_ddot": 0,
        "tle_line1": "1 40143U 14053A   25342.28206122  .00008677  00000+0  36476-3 0  9990",
        "tle_line2": "2 40143  97.1757  25.7885 0009992  55.4301 304.7878 15.23596222625863"
      },
      "geometry": {
        "type": "Point",
        "coordinates": [
          28.754196126467143,
          -19.304579184987393
        ]
      }
    },
    {
      "type": "Feature",
      "properties": {
        "norad_id": 40275,
        "name": "YAOGAN-22",
        "group": "resource",
        "lat": -68.57214376567406,
        "lon": 155.0262367950079,
        "alt_km": 1205.1626783656693,
        "timestamp": "2025-12-08T17:43:04.551142+00:00",
        "meta_object_name": "YAOGAN-22",
        "meta_object_id": "2014-063A",
        "meta_epoch": "2025-12-08T07:07:42.504672",
        "meta_mean_motion": 13.1552248,
        "meta_eccentricity": 0.00059245,
        "meta_inclination": 100.7419,
        "meta_ra_of_asc_node": 125.6538,
        "meta_arg_of_pericenter": 258.978,
        "meta_mean_anomaly": 101.0665,
        "meta_ephemeris_type": 0,
        "meta_classification_type": "U",
        "meta_norad_cat_id": 40275,
        "meta_element_set_no": 999,
        "meta_rev_at_epoch": 53471,
        "meta_bstar": 0.00010354436,
        "meta_mean_motion_dot": -8e-08,
        "meta_mean_motion_ddot": 0,
        "tle_line1": "1 40275U 14063A   25342.29701973 -.00000008  00000+0  10354-3 0  9990",
        "tle_line2": "2 40275 100.7419 125.6538 0005924 258.9780 101.0665 13.15522480534711"
      },
      "geometry": {
        "type": "Point",
        "coordinates": [
          155.0262367950079,
          -68.57214376567406
        ]
      }
    },
    {
      "type": "Feature",
      "properties": {
        "norad_id": 40298,
        "name": "ASNARO",
        "group": "resource",
        "lat": 82.5743856249247,
        "lon": -24.185273124753532,
        "alt_km": 497.6131362037049,
        "timestamp": "2025-12-08T17:43:04.551153+00:00",
        "meta_object_name": "ASNARO",
        "meta_object_id": "2014-070A",
        "meta_epoch": "2025-12-08T06:15:46.503360",
        "meta_mean_motion": 15.19351297,
        "meta_eccentricity": 0.00053844,
        "meta_inclination": 97.3653,
        "meta_ra_of_asc_node": 58.3175,
        "meta_arg_of_pericenter": 134.4426,
        "meta_mean_anomaly": 225.7251,
        "meta_ephemeris_type": 0,
        "meta_classification_type": "U",
        "meta_norad_cat_id": 40298,
        "meta_element_set_no": 999,
        "meta_rev_at_epoch": 61501,
        "meta_bstar": 0.00059967978,
        "meta_mean_motion_dot": 0.00012625,
        "meta_mean_motion_ddot": 0,
        "tle_line1": "1 40298U 14070A   25342.26095490  .00012625  00000+0  59968-3 0  9991",
        "tle_line2": "2 40298  97.3653  58.3175 0005384 134.4426 225.7251 15.19351297615011"
      },
      "geometry": {
        "type": "Point",
        "coordinates": [
          -24.185273124753532,
          82.5743856249247
        ]
      }
    },
    {
      "type": "Feature",
      "properties": {
        "norad_id": 40310,
        "name": "YAOGAN-24",
        "group": "resource",
        "lat": -36.12010620919879,
        "lon": 119.79263304169397,
        "alt_km": 657.9279252191618,
        "timestamp": "2025-12-08T17:43:04.551164+00:00",
        "meta_object_name": "YAOGAN-24",
        "meta_object_id": "2014-072A",
        "meta_epoch": "2025-12-08T06:29:45.190752",
        "meta_mean_motion": 14.76163314,
        "meta_eccentricity": 0.00145452,
        "meta_inclination": 98.1225,
        "meta_ra_of_asc_node": 113.3404,
        "meta_arg_of_pericenter": 151.8528,
        "meta_mean_anomaly": 208.347,
        "meta_ephemeris_type": 0,
        "meta_classification_type": "U",
        "meta_norad_cat_id": 40310,
        "meta_element_set_no": 999,
        "meta_rev_at_epoch": 59555,
        "meta_bstar": 0.00028186261,
        "meta_mean_motion_dot": 1.898e-05,
        "meta_mean_motion_ddot": 0,
        "tle_line1": "1 40310U 14072A   25342.27066193  .00001898  00000+0  28186-3 0  9995",
        "tle_line2": "2 40310  98.1225 113.3404 0014545 151.8528 208.3470 14.76163314595551"
      },
      "geometry": {
        "type": "Point",
        "coordinates": [
          119.79263304169397,
          -36.12010620919879
        ]
      }
    },
    {
      "type": "Feature",
      "properties": {
        "norad_id": 40336,
        "name": "CBERS 4",
        "group": "resource",
        "lat": -69.51652581353376,
        "lon": 63.989028176132095,
        "alt_km": 781.7074135210942,
        "timestamp": "2025-12-08T17:43:04.551174+00:00",
        "meta_object_name": "CBERS 4",
        "meta_object_id": "2014-079A",
        "meta_epoch": "2025-12-08T06:20:22.020864",
        "meta_mean_motion": 14.35515403,
        "meta_eccentricity": 0.00015493,
        "meta_inclination": 98.3316,
        "meta_ra_of_asc_node": 40.4341,
        "meta_arg_of_pericenter": 119.6029,
        "meta_mean_anomaly": 240.5312,
        "meta_ephemeris_type": 0,
        "meta_classification_type": "U",
        "meta_norad_cat_id": 40336,
        "meta_element_set_no": 999,
        "meta_rev_at_epoch": 57656,
        "meta_bstar": 0.00012414744,
        "meta_mean_motion_dot": 3.15e-06,
        "meta_mean_motion_ddot": 0,
        "tle_line1": "1 40336U 14079A   25342.26414376  .00000315  00000+0  12415-3 0  9990",
        "tle_line2": "2 40336  98.3316  40.4341 0001549 119.6029 240.5312 14.35515403576568"
      },
      "geometry": {
        "type": "Point",
        "coordinates": [
          63.989028176132095,
          -69.51652581353376
        ]
      }
    }
  ]
}